{
  "type": "FeatureCollection",
  "features": [
    {
      "type": "Feature",
      "properties": {
        "norad_id": 50032,
        "name": "COSMOS 1408 DEB",
        "group": "cosmos-1408-debris",
        "lat": -46.17017595625018,
        "lon": -115.68054028156563,
        "alt_km": 426.6542000851805,
        "timestamp": "2025-12-14T16:47:40.954161+00:00",
        "meta_object_name": "COSMOS 1408 DEB",
        "meta_object_id": "1982-092RU",
        "meta_epoch": "2025-12-13T22:43:36.201792",
        "meta_mean_motion": 15.45710174,
        "meta_eccentricity": 0.00153499,
        "meta_inclination": 82.5643,
        "meta_ra_of_asc_node": 57.2716,
        "meta_arg_of_pericenter": 204.0305,
        "meta_mean_anomaly": 156.0229,
        "meta_ephemeris_type": 0,
        "meta_classification_type": "U",
        "meta_norad_cat_id": 50032,
        "meta_element_set_no": 999,
        "meta_rev_at_epoch": 22622,
        "meta_bstar": 0.00013059545,
        "meta_mean_motion_dot": 6.373e-05,
        "meta_mean_motion_ddot": 0,
        "tle_line1": "1 50032U 82092RU  25347.94694678  .00006373  00000+0  13060-3 0  9996",
        "tle_line2": "2 50032  82.5643  57.2716 0015349 204.0305 156.0229 15.45710174226228"
      },
      "geometry": {
        "type": "Point",
        "coordinates": [
          -115.68054028156563,
          -46.17017595625018
        ]
      }
    },
    {
      "type": "Feature",
      "properties": {
        "norad_id": 50058,
        "name": "COSMOS 1408 DEB",
        "group": "cosmos-1408-debris",
        "lat": -18.522355266380046,
        "lon": -110.21898767553614,
        "alt_km": 383.66427946878775,
        "timestamp": "2025-12-14T16:47:40.954183+00:00",
        "meta_object_name": "COSMOS 1408 DEB",
        "meta_object_id": "1982-092SW",
        "meta_epoch": "2025-12-13T23:03:40.900320",
        "meta_mean_motion": 15.64196119,
        "meta_eccentricity": 0.00162635,
        "meta_inclination": 82.6133,
        "meta_ra_of_asc_node": 68.0633,
        "meta_arg_of_pericenter": 95.054,
        "meta_mean_anomaly": 265.2576,
        "meta_ephemeris_type": 0,
        "meta_classification_type": "U",
        "meta_norad_cat_id": 50058,
        "meta_element_set_no": 999,
        "meta_rev_at_epoch": 22823,
        "meta_bstar": 0.00035914931,
        "meta_mean_motion_dot": 0.00034458,
        "meta_mean_motion_ddot": 0,
        "tle_line1": "1 50058U 82092SW  25347.96089005  .00034458  00000+0  35915-3 0  9996",
        "tle_line2": "2 50058  82.6133  68.0633 0016263  95.0540 265.2576 15.64196119228233"
      },
      "geometry": {
        "type": "Point",
        "coordinates": [
          -110.21898767553614,
          -18.522355266380046
        ]
      }
    },
    {
      "type": "Feature",
      "properties": {
        "norad_id": 50404,
        "name": "COSMOS 1408 DEB",
        "group": "cosmos-1408-debris",
        "lat": -42.97345372606966,
        "lon": -154.30777662402053,
        "alt_km": 595.6127634680406,
        "timestamp": "2025-12-14T16:47:40.954197+00:00",
        "meta_object_name": "COSMOS 1408 DEB",
        "meta_object_id": "1982-092ADS",
        "meta_epoch": "2025-12-13T15:36:46.976544",
        "meta_mean_motion": 15.13985061,
        "meta_eccentricity": 0.01712289,
        "meta_inclination": 82.2035,
        "meta_ra_of_asc_node": 214.1008,
        "meta_arg_of_pericenter": 195.758,
        "meta_mean_anomaly": 163.8287,
        "meta_ephemeris_type": 0,
        "meta_classification_type": "U",
        "meta_norad_cat_id": 50404,
        "meta_element_set_no": 999,
        "meta_rev_at_epoch": 21207,
        "meta_bstar": 0.0029876166,
        "meta_mean_motion_dot": 0.00078948,
        "meta_mean_motion_ddot": 0,
        "tle_line1": "1 50404U 82092ADS 25347.65054371  .00078948  00000+0  29876-2 0  9995",
        "tle_line2": "2 50404  82.2035 214.1008 0171228 195.7580 163.8287 15.13985061212073"
      },
      "geometry": {
        "type": "Point",
        "coordinates": [
          -154.30777662402053,
          -42.97345372606966
        ]
      }
    },
    {
      "type": "Feature",
      "properties": {
        "norad_id": 50621,
        "name": "COSMOS 1408 DEB",
        "group": "cosmos-1408-debris",
        "lat": 17.41965792702659,
        "lon": -110.206751748724,
        "alt_km": 378.82932907357736,
        "timestamp": "2025-12-14T16:47:40.954209+00:00",
        "meta_object_name": "COSMOS 1408 DEB",
        "meta_object_id": "1982-092ALR",
        "meta_epoch": "2025-12-13T23:07:53.263488",
        "meta_mean_motion": 15.56744176,
        "meta_eccentricity": 0.00289425,
        "meta_inclination": 82.5704,
        "meta_ra_of_asc_node": 72.9061,
        "meta_arg_of_pericenter": 147.9059,
        "meta_mean_anomaly": 212.3966,
        "meta_ephemeris_type": 0,
        "meta_classification_type": "U",
        "meta_norad_cat_id": 50621,
        "meta_element_set_no": 999,
        "meta_rev_at_epoch": 22269,
        "meta_bstar": 0.00040553481,
        "meta_mean_motion_dot": 0.00029641,
        "meta_mean_motion_ddot": 0,
        "tle_line1": "1 50621U 82092ALR 25347.96381092  .00029641  00000+0  40553-3 0  9995",
        "tle_line2": "2 50621  82.5704  72.9061 0028942 147.9059 212.3966 15.56744176222693"
      },
      "geometry": {
        "type": "Point",
        "coordinates": [
          -110.206751748724,
          17.41965792702659
        ]
      }
    }
  ]
}